NORAD_CAT_ID,OBJECT_NAME,OBJECT_TYPE,EPOCH,MEAN_MOTION,ECCENTRICITY,INCLINATION,RA_OF_ASC_NODE,ARG_OF_PERICENTER,MEAN_ANOMALY,BSTAR,MEAN_MOTION_DOT,MEAN_MOTION_DDOT,TLE_LINE0,TLE_LINE1,TLE_LINE2,SEMIMAJOR_AXIS,PERIOD,APOGEE,PERIGEE,DECAYED
49137.0,STARLINK-3055,PAYLOAD,2021-10-12 14:00:01,15.69722551,0.0003689,70.0009,46.8982,286.0046,280.7257,0.00016113,0.00019046,0.0,0 STARLINK-3055,1 49137U 21082H   21285.58334491  .00019046  00000-0  16113-3 0  9997,2 49137  70.0009  46.8982 0003689 286.0046 280.7257 15.69722551  3671,6737.828,91.736,362.17800000000005,357.207,0.0
49137.0,STARLINK-3055,PAYLOAD,2021-10-12 22:00:01,15.69778176,0.0003731,70.0003,45.96100000000001,287.7298,2.1827,-6.5508e-05,-8.035e-05,0.0,0 STARLINK-3055,1 49137U 21082H   21285.91668981 -.00008035  00000-0 -65508-4 0  9999,2 49137  70.0003  45.9610 0003731 287.7298   2.1827 15.69778176  4627,6737.669,91.733,362.047,357.02,0.0
49137.0,STARLINK-3055,PAYLOAD,2021-10-13 14:00:01,15.69775507,0.0003652,70.0002,44.0871,287.1163,169.051,-0.00075962,-0.00090031,0.0,0 STARLINK-3055,1 49137U 21082H   21286.58334491 -.00090031  00000-0 -75962-3 0  9990,2 49137  70.0002  44.0871 0003652 287.1163 169.0510 15.69775507  3684,6737.676,91.733,362.002,357.081,0.0
49137.0,STARLINK-3055,PAYLOAD,2021-10-13 22:00:01,15.69741386,0.0003667,70.0,43.15,288.7359,250.5954,-0.00082799,-0.00097886,0.0,0 STARLINK-3055,1 49137U 21082H   21286.91668981 -.00097886  00000-0 -82799-3 0  9992,2 49137  70.0000  43.1500 0003667 288.7359 250.5954 15.69741386  4778,6737.774,91.735,362.11,357.168,0.0
49137.0,STARLINK-3055,PAYLOAD,2021-10-14 06:00:02,15.69271513,0.0003728,69.9996,42.2069,288.4282,334.0273,0.0058678,0.00752006,0.0,0 STARLINK-3055,1 49137U 21082H   21287.25002315  .00752006  00000-0  58678-2 0  9991,2 49137  69.9996  42.2069 0003728 288.4282 334.0273 15.69271513  4838,6739.119000000002,91.762,363.496,358.471,0.0
49137.0,STARLINK-3055,PAYLOAD,2021-10-14 14:00:01,15.69724617,0.0003866,70.0007,41.2759,287.0158,58.4805,9.2507e-05,0.00010835,0.0,0 STARLINK-3055,1 49137U 21082H   21287.58335648  .00010835  00000-0  92507-4 0  9993,2 49137  70.0007  41.2759 0003866 287.0158  58.4805 15.69724617  3687,6737.821999999999,91.736,362.292,357.082,0.0
49137.0,STARLINK-3055,PAYLOAD,2021-10-14 20:00:01,15.69738487,0.0003966,70.0005,40.573,288.9889,28.8314,0.00014462,0.00017081,0.0,0 STARLINK-3055,1 49137U 21082H   21287.83335648  .00017081  00000-0  14462-3 0  9994,2 49137  70.0005  40.5730 0003966 288.9889  28.8314 15.69738487  4922,6737.781999999997,91.735,362.319,356.975,0.0
49137.0,STARLINK-3055,PAYLOAD,2021-10-14 22:00:00,15.69763133,0.0003887,70.0003,40.3389,288.2381,140.2897,-0.00028186,-0.00033748,0.0,0 STARLINK-3055,1 49137U 21082H   21287.91667824 -.00033748  00000-0 -28186-3 0  9995,2 49137  70.0003  40.3389 0003887 288.2381 140.2897 15.69763133  3706,6737.712,91.734,362.196,356.958,0.0
49137.0,STARLINK-3055,PAYLOAD,2021-10-15 06:00:02,15.69749562,0.0003935,70.0,39.3944,287.753,223.8101,-4.2533e-05,-5.287e-05,0.0,0 STARLINK-3055,1 49137U 21082H   21288.25002315 -.00005287  00000-0 -42533-4 0  9991,2 49137  70.0000  39.3944 0003935 287.7530 223.8101 15.69749562  4989,6737.751,91.734,362.267,356.964,0.0
49137.0,STARLINK-3055,PAYLOAD,2021-10-15 14:00:01,15.69773586,0.0003882,70.0004,38.4651,288.1469,306.6719,0.00011609,0.00013684,0.0,0 STARLINK-3055,1 49137U 21082H   21288.58334491  .00013684  00000-0  11609-3 0  9997,2 49137  70.0004  38.4651 0003882 288.1469 306.6719 15.69773586  5041,6737.682,91.733,362.162,356.931,0.0
49137.0,STARLINK-3055,PAYLOAD,2021-10-15 22:00:00,15.69805226,0.0003771,70.0002,37.5277,289.3851,28.5937,-0.00092964,-0.00110013,0.0,0 STARLINK-3055,1 49137U 21082H   21288.91667824 -.00110013  00000-0 -92964-3 0  9992,2 49137  70.0002  37.5277 0003771 289.3851  28.5937 15.69805226  3663,6737.590999999999,91.731,361.997,356.916,0.0
49137.0,STARLINK-3055,PAYLOAD,2021-10-16 06:00:02,15.69725093,0.0003639,70.0006,36.5908,284.4784,116.7068,0.00045152,0.00053985,0.0,0 STARLINK-3055,1 49137U 21082H   21289.25002315  .00053985  00000-0  45152-3 0  9997,2 49137  70.0006  36.5908 0003639 284.4784 116.7068 15.69725093  5144,6737.821,91.736,362.137,357.2340000000001,0.0
49137.0,STARLINK-3055,PAYLOAD,2021-10-16 12:00:00,15.69781231,0.0003847,70.0011,35.88800000000001,286.4805,86.9636,-0.0011067,-0.00130483,0.0,0 STARLINK-3055,1 49137U 21082H   21289.50001157 -.00130483  00000-0 -11067-2 0  9996,2 49137  70.0011  35.8880 0003847 286.4805  86.9636 15.69781231  5187,6737.66,91.733,362.117,356.93300000000005,0.0
49137.0,STARLINK-3055,PAYLOAD,2021-10-16 16:00:00,15.69691007,0.0003938,70.0011,35.4194,289.843,305.1801,9.7738e-05,0.00011444,0.0,0 STARLINK-3055,1 49137U 21082H   21289.66667824  .00011444  00000-0  97738-4 0  9996,2 49137  70.0011  35.4194 0003938 289.8430 305.1801 15.69691007  3698,6737.918000000002,91.738,362.436,357.13,0.0
49137.0,STARLINK-3055,PAYLOAD,2021-10-16 22:00:01,15.69725429,0.0003932,70.0008,34.7168,288.4565,278.9279,-0.00038401,-0.00045766,0.0,0 STARLINK-3055,1 49137U 21082H   21289.91668981 -.00045766  00000-0 -38401-3 0  9996,2 49137  70.0008  34.7168 0003932 288.4565 278.9279 15.69725429  5251,6737.82,91.736,362.334,357.035,0.0
49137.0,STARLINK-3055,PAYLOAD,2021-10-17 06:00:00,15.6969621,0.0003875,70.0011,33.7801,283.7549,6.6411,0.00047161,0.00056347,0.0,0 STARLINK-3055,1 49137U 21082H   21290.25001157  .00056347  00000-0  47161-3 0  9999,2 49137  70.0011  33.7801 0003875 283.7549   6.6411 15.69696210  3666,6737.903,91.737,362.379,357.157,0.0
49137.0,STARLINK-3055,PAYLOAD,2021-10-17 14:00:01,15.69718695,0.0003994,70.0009,32.8433,288.6791,84.8127,0.00015322,0.00018097,0.0,0 STARLINK-3055,1 49137U 21082H   21290.58334491  .00018097  00000-0  15322-3 0  9999,2 49137  70.0009  32.8433 0003994 288.6791  84.8127 15.69718695  5351,6737.839,91.736,362.395,357.01300000000015,0.0
49137.0,STARLINK-3055,PAYLOAD,2021-10-17 22:00:00,15.69759324,0.0004017,70.0008,31.9062,288.8563,167.7276,-0.00031334,-0.00037472,0.0,0 STARLINK-3055,1 49137U 21082H   21290.91667824 -.00037472  00000-0 -31334-3 0  9996,2 49137  70.0008  31.9062 0004017 288.8563 167.7276 15.69759324  3666,6737.723000000001,91.734,362.294,356.881,0.0
49137.0,STARLINK-3055,PAYLOAD,2021-10-18 06:00:00,15.69752296,0.0003944,70.0012,30.9693,283.7842,255.9354,0.00049886,0.00059779,0.0,0 STARLINK-3055,1 49137U 21082H   21291.25001157  .00059779  00000-0  49886-3 0  9998,2 49137  70.0012  30.9693 0003944 283.7842 255.9354 15.69752296  5459,6737.743,91.734,362.265,356.95,0.0
49137.0,STARLINK-3055,PAYLOAD,2021-10-18 14:00:01,15.69774496,0.0004051,70.0014,30.0323,289.4073,333.4804,0.00042463,0.00050846,0.0,0 STARLINK-3055,1 49137U 21082H   21291.58334491  .00050846  00000-0  42463-3 0  9994,2 49137  70.0014  30.0323 0004051 289.4073 333.4804 15.69774496  3671,6737.679,91.733,362.274,356.815,0.0
49137.0,STARLINK-3055,PAYLOAD,2021-10-18 22:00:01,15.69856274,0.0003882,70.0013,29.0954,289.2837,56.8426,-0.0010613,-0.00125601,0.0,0 STARLINK-3055,1 49137U 21082H   21291.91668981 -.00125601  00000-0 -10613-2 0  9990,2 49137  70.0013  29.0954 0003882 289.2837  56.8426 15.69856274  5566,6737.445,91.728,361.926,356.695,0.0
49137.0,STARLINK-3055,PAYLOAD,2021-10-19 14:00:01,15.69709046,0.0003628999999999,70.0013,27.2218,292.6563,219.7489,0.00033832,0.00040304,0.0,0 STARLINK-3055,1 49137U 21082H   21292.58334491  .00040304  00000-0  33832-3 0  9993,2 49137  70.0013  27.2218 0003629 292.6563 219.7489 15.69709046  3697,6737.866,91.737,362.177,357.286,0.0
49137.0,STARLINK-3055,PAYLOAD,2021-10-19 20:00:01,15.69749518,0.0003641,70.0011,26.519,293.3269,191.3846,-0.00016726,-0.00020133,0.0,0 STARLINK-3055,1 49137U 21082H   21292.83334491 -.00020133  00000-0 -16726-3 0  9994,2 49137  70.0011  26.5190 0003641 293.3269 191.3846 15.69749518  5705,6737.751,91.734,362.069,357.162,0.0
49137.0,STARLINK-3055,PAYLOAD,2021-10-19 22:00:00,15.69756207,0.0003606,70.0011,26.2848,291.8305,303.6584,-0.00030779,-0.00036807,0.0,0 STARLINK-3055,1 49137U 21082H   21292.91667824 -.00036807  00000-0 -30779-3 0  9991,2 49137  70.0011  26.2848 0003606 291.8305 303.6584 15.69756207  3671,6737.732,91.734,362.026,357.167,0.0
49137.0,STARLINK-3055,PAYLOAD,2021-10-20 14:00:01,15.69728198,0.000386,70.0016,24.4109,291.2526,110.4985,-9.0469e-05,-0.0001099,0.0,0 STARLINK-3055,1 49137U 21082H   21293.58334491 -.00010990  00000-0 -90469-4 0  9994,2 49137  70.0016  24.4109 0003860 291.2526 110.4985 15.69728198  5823,6737.812,91.736,362.277,357.076,0.0
49137.0,STARLINK-3055,PAYLOAD,2021-10-20 22:00:00,15.69735016,0.000383,70.0014,23.4741,290.4777,194.3547,-0.00031505,-0.00037635,0.0,0 STARLINK-3055,1 49137U 21082H   21293.91667824 -.00037635  00000-0 -31505-3 0  9990,2 49137  70.0014  23.4741 0003830 290.4777 194.3547 15.69735016  3660,6737.792,91.735,362.23800000000006,357.077,0.0
49137.0,STARLINK-3055,PAYLOAD,2021-10-21 14:00:01,15.69721923,0.0003925,70.0014,21.6008,291.9892,359.0496,0.00028716,0.00034172,0.0,0 STARLINK-3055,1 49137U 21082H   21294.58334491  .00034172  00000-0  28716-3 0  9996,2 49137  70.0014  21.6008 0003925 291.9892 359.0496 15.69721923  5987,6737.83,91.736,362.339,357.05,0.0
49137.0,STARLINK-3055,PAYLOAD,2021-10-21 22:00:00,15.6976426,0.0003915,70.001,20.6637,289.9906,84.1633,-0.00022786,-0.00027345,0.0,0 STARLINK-3055,1 49137U 21082H   21294.91667824 -.00027345  00000-0 -22786-3 0  9999,2 49137  70.0010  20.6637 0003915 289.9906  84.1633 15.69764260  3687,6737.708000000001,91.734,362.211,356.936,0.0
49137.0,STARLINK-3055,PAYLOAD,2021-10-22 14:00:01,15.69772299,0.0003931,70.0012,18.7897,292.2832,248.1637,0.00013749,0.0001625,0.0,0 STARLINK-3055,1 49137U 21082H   21295.58334491  .00016250  00000-0  13749-3 0  9994,2 49137  70.0012  18.7897 0003931 292.2832 248.1637 15.69772299  3685,6737.685,91.733,362.199,356.902,0.0
